#cP2016  1  1  0  0  0.00000000      96 ORBIT IGb08 HLM  IGS
## 1877 432000.00000000   900.00000000 57388 0.0000000000000
+   25   R01R02R03R04R05R06R07R08R09R10R11R12R13R14R15R16R18
+        R19R20R21R22R23R24R26R27  0  0  0  0  0  0  0  0  0
+          0  0  0  0  0  0  0  0  0  0  0  0  0  0  0  0  0
+          0  0  0  0  0  0  0  0  0  0  0  0  0  0  0  0  0
+          0  0  0  0  0  0  0  0  0  0  0  0  0  0  0  0  0
++         4  3  3  3  4  4  3  3  4  3  5  4  3  4  4  3  3
++         3  4  3  3  4  4  6  0  0  0  0  0  0  0  0  0  0
++         0  0  0  0  0  0  0  0  0  0  0  0  0  0  0  0  0
++         0  0  0  0  0  0  0  0  0  0  0  0  0  0  0  0  0
++         0  0  0  0  0  0  0  0  0  0  0  0  0  0  0  0  0
%c R  cc GPS ccc cccc cccc cccc cccc ccccc ccccc ccccc ccccc
%c cc cc ccc ccc cccc cccc cccc cccc ccccc ccccc ccccc ccccc
%f  1.2500000  1.025000000  0.00000000000  0.000000000000000
%f  0.0000000  0.000000000  0.00000000000  0.000000000000000
%i    0    0    0    0      0      0      0      0         0
%i    0    0    0    0      0      0      0      0         0
/* FINAL ORBIT COMBINATION FROM WEIGHTED AVERAGE OF:        
/* brx cod cof emx esx gfz grg iac mcc                      
/*                                                          
/* PCV:IGS08_1869 OL/AL:FES2004  NONE     Y  ORB:CMB CLK:CMB
*  2016  1  1 11  0  0.00000000
PR01  -4910.968556 -13253.382724 -21235.900382   -147.156484 11  9  8           
PR02 -13614.068174   4967.873176 -20953.745419    169.389686  9  8  8           
PR03 -14161.140605  19642.733758  -7944.835219     58.891185  7  9 10           
PR04  -6115.605070  22694.134071   9907.837548    151.498979  8  8  9           
PR05   5329.722412  12690.437140  21461.920614      3.151657 11 11 10           
PR06  13974.411656  -5855.126940  20509.644369     81.168421 11 10  8           
PR07  14157.349846 -19759.180128   7797.037456     -5.015239 10  7  9           
PR08   6487.581225 -22787.020514  -9391.059324    -27.011216 10  7 12           
PR09  15298.107512   7133.415958 -19098.104444     23.192659 11 13 11           
PR10   6525.233561  -9014.275785 -22959.232812      4.252352  9  9  4           
PR11  -6208.418321 -20774.732837 -13503.359624     21.164110 12 14 16           
PR12 -15230.915582 -19947.982615   4048.554852     31.049296 15 10 14           
PR13 -15172.787325  -6979.696284  19267.968601     11.948802 11 10  8           
PR14  -5575.502916  10260.176164  22673.260372    263.135172 11 14 11           
PR15   5216.568278  20264.616364  14524.842497     60.772456 12  9 10           
PR16  15615.380964  19578.313916  -5099.437037     27.105017 11  8 10           
PR18  -3049.561267  10800.397933 -22886.578165     82.878201  9 10  9           
PR19  16565.159743   7666.218076 -17812.918522   -144.592425 11  7 10           
PR20  25470.491720     23.231335  -1789.056993   -212.338692 12  7 13           
PR21  19802.440270  -7545.604646  14177.656267     44.898738 10  9 11           
PR22   2786.586223 -10763.402698  22971.408260    186.915314  6  9  5           
PR23 -16848.118198  -7381.991790  17669.369911    -65.484570 10  8  8           
PR24 -25320.020935   -213.090408   3046.452152   -132.376395 12 11 15           
PR26  25468.707804   -908.130390   -707.889777 999999.999999 14 12 17           
PR27  15207.831208   7619.607378 -18988.485189 999999.999999                    
*  2016  1  1 11 15  0.00000000
PR01  -3911.388104 -15579.391907 -19815.266545   -147.155553 11  9  8           
PR02 -12451.560527   2571.670754 -22079.158854    169.391661  9  8  7           
PR03 -13557.886682  18637.148246 -10872.255724     58.892116  7  9 10           
PR04  -6433.449719  23690.388144   6922.101005    151.500955  8  7  9           
PR05   4314.764389  15050.242226  20124.910234      3.150613 11 10 10           
PR06  12853.692897  -3497.974499  21739.520918     81.169352 11 10  9           
PR07  13560.151207 -18780.771548  10731.293751     -5.015239 10  7  8           
PR08   6782.995008 -23729.594132  -6377.262011    -27.012147 10  6 12           
PR09  16657.325587   8910.146709 -17100.309258     23.193590 11 12 11           
PR10   8126.985262  -6653.850894 -23257.767694      4.254199  9  9  5           
PR11  -5283.477132 -19201.558505 -15988.407437     21.166086 12 15 16           
PR12 -15531.018579 -20111.125576    836.229391     31.049296 14  8 14           
PR13 -16567.854109  -8761.597723  17290.816658     11.946939 11 10  8           
PR14  -7155.897612   7906.813317  23160.971152    263.139461 10 14 10           
PR15   4235.472606  18580.076908  16911.743475     60.772456 12 10 10           
PR16  15998.215118  19834.021407  -1922.885601     27.106992 11  7 10           
PR18  -5826.466600  11057.344139 -22210.882660     82.880176  9  9  9           
PR19  14245.939164   7710.466647 -19699.801148   -144.592538 11  8 10           
PR20  25040.876064   -135.309846  -4980.602426   -212.340667 12  7 13           
PR21  21372.236495  -7809.353596  11499.832747     44.897101 10  9 12           
PR22   5569.401579 -11025.671015  22342.806642    186.917290  7  9  4           
PR23 -14546.510706  -7461.948368  19576.548454    -65.488746 11  8  8           
PR24 -24733.618067    -85.342835   6207.886276   -132.377326 12 11 15           
PR26  25167.934150  -1059.288026  -3919.598155 999999.999999 13 11 17           
PR27  16513.179262   9425.556263 -16989.751314 999999.999999                    
*  2016  1  1 11 30  0.00000000
PR01  -3150.415672 -17785.165510 -18009.787345   -147.155553 11  9  8           
PR02 -11426.641073     -7.417123 -22774.290304    169.392480  9  9  7           
PR03 -12904.694122  17265.574105 -13587.840519     58.892116  7 10 10           
PR04  -6544.583070  24355.802199   3801.853678    151.501773  8  7 10           
PR05   3537.287189  17299.574713  18396.573782      3.149794 11 10 10           
PR06  11860.437826   -948.822178  22546.619468     81.169352 10 10  9           
PR07  12910.826130 -17436.847056  13457.610440     -5.015239 10  7  8           
PR08   6873.504326 -24337.086690  -3239.314693    -27.012147  9  5 12           
PR09  17976.284834  10375.344042 -14769.319567     23.193590 10 12 11           
PR10   9908.160228  -4415.175907 -23105.254719      4.255018  8  9  5           
PR11  -4062.340652 -17479.949841 -18164.022357     21.166904 13 16 15           
PR12 -15592.412740 -19941.924450  -2392.505808     31.049296 13  6 15           
PR13 -17925.268689 -10229.725654  14977.491942     11.946939 11 10  8           
PR14  -8930.498862   5654.050567  23198.383162    263.143554  9 14  9           
PR15   2959.678068  16761.200525  18969.037052     60.772456 12 10  9           
PR16  16152.038270  19756.053624   1290.816069     27.107811 11  8 10           
PR18  -8468.699219  11502.455314 -21102.730894     82.880995  8  9  9           
PR19  11729.875748   7955.672095 -21203.919815   -144.593356 12  8  9           
PR20  24217.940840   -209.487174  -8075.655511   -212.341486 12  8 12           
PR21  22578.770591  -8137.043168   8598.280957     44.898738 10  9 12           
PR22   8221.156543 -11478.708537  21281.419035    186.918108  8  9  4           
PR23 -12048.322527  -7744.308350  21103.393389    -65.492020 11  8  7           
PR24 -23761.950183    -58.701085   9248.616398   -132.377326 12 11 15           
PR26  24470.509210  -1128.756950  -7055.026746 999999.999999 13 10 16           
PR27  17784.918258  10919.170714 -14660.650580 999999.999999                    
*  2016  1  1 11 45  0.00000000
PR01  -2619.533101 -19806.418604 -15854.452579   -147.155553 11  9  8           
PR02 -10575.070961  -2709.724445 -23025.697900    169.393524  9  9  7           
PR03 -12258.375563  15545.973945 -16038.630043     58.893047  7 10 10           
PR04  -6493.053794  24655.950172    607.718948    151.503749  9  7 10           
PR05   2990.311047  19373.606633  16310.567823      3.147819 11  9 11           
PR06  11031.084556   1734.514682  22915.115856     81.170283 10 11  9           
PR07  12266.152237 -15744.662318  15923.222592     -5.015239 10  7  7           
PR08   6804.021217 -24576.560200    -38.338707    -27.012147  9  4 12           
PR09  19192.813689  11515.929118 -12150.306425     23.194522 10 12 11           
PR10  11822.371764  -2352.680840 -22504.928819      4.256062  9  9  6           
PR11  -2548.105209 -15674.409438 -19987.908809     21.167948 13 16 15           
PR12 -15373.007166 -19477.264921  -5574.319905     31.050228 12  9 15           
PR13 -19182.359440 -11370.898223  12372.991273     11.946008 11 10  8           
PR14 -10855.335379   3558.621218  22784.492490    263.145065  9 14  9           
PR15   1395.342070  14874.277085  20656.949886     60.773388 12 11  8           
PR16  16032.788077  19378.430682   4479.561187     27.109786 11  8 10           
PR18 -10913.191719  12107.017155 -19583.508877     82.882970  8  9  9           
PR19   9082.698937   8419.683798 -22296.077391   -144.594401 12  9  9           
PR20  23028.460458   -148.239212 -11014.222600   -212.343461 12  9 12           
PR21  23398.810379  -8474.393083   5529.418955     44.899895 11  9 12           
PR22  10678.753366 -12094.530992  19808.225269    186.920084  9  9  5           
PR23  -9419.136104  -8246.319088  22220.229442    -65.496197 12  8  6           
PR24 -22436.147162   -182.165053  12109.475203   -132.378258 13 12 14           
PR26  23401.100591  -1064.962360 -10053.143157 999999.999999 13  8 16           
PR27  18961.986535  12086.355420 -12046.644081 999999.999999                    
EOF
